[{"OBJECT_NAME":"STARLINK-34306","OBJECT_ID":"2025-120D","EPOCH":"2026-03-09T12:27:33.283008","MEAN_MOTION":15.30190625,"ECCENTRICITY":0.00013534,"INCLINATION":53.1601,"RA_OF_ASC_NODE":117.2262,"ARG_OF_PERICENTER":76.6066,"MEAN_ANOMALY":283.5085,"EPHEMERIS_TYPE":0,"CLASSIFICATION_TYPE":"U","NORAD_CAT_ID":64259,"ELEMENT_SET_NO":999,"REV_AT_EPOCH":4384,"BSTAR":0.00086737168,"MEAN_MOTION_DOT":0.0002541,"MEAN_MOTION_DDOT":0},{"OBJECT_NAME":"KUIPER-00208","OBJECT_ID":"2026-030M","EPOCH":"2026-03-09T16:08:08.024640","MEAN_MOTION":15.32208734,"ECCENTRICITY":0.00155248,"INCLINATION":51.8846,"RA_OF_ASC_NODE":219.6993,"ARG_OF_PERICENTER":57.3146,"MEAN_ANOMALY":302.9333,"EPHEMERIS_TYPE":0,"CLASSIFICATION_TYPE":"U","NORAD_CAT_ID":67775,"ELEMENT_SET_NO":999,"REV_AT_EPOCH":508,"BSTAR":0.0013882708,"MEAN_MOTION_DOT":0.00043852,"MEAN_MOTION_DDOT":0}]
